{
	"addresses": [
		{
			"line1": "65 Argyle Lane",
			"city": "Deerfield",
			"state": "IL",
			"zip": "60015"
		},
		{
			"line1": "81 Canal Lane",
			"city": "Wyandotte",
			"state": "MI",
			"zip": "48192"
		},
		{
			"line1": "48 Catherine Ave.",
			"city": "Ossining",
			"state": "NY",
			"zip": "10562"
		},
		{
			"line1": "7964 Essex Court",
			"city": "South Ozone Park",
			"state": "NY",
			"zip": "11420"
		},
		{
			"line1": "9476 Glendale Street",
			"city": "Hackettstown",
			"state": "NJ",
			"zip": "07840"
		},
		{
			"line1": "20 E. Hawthorne St.",
			"city": "Erlanger",
			"state": "KY",
			"zip": "41018"
		},
		{
			"line1": "9624 East Birch Hill St.",
			"city": "Villa Rica",
			"state": "GA",
			"zip": "30180"
		},
		{
			"line1": "7450 West Lane",
			"city": "Patchogue",
			"state": "NY",
			"zip": "11772"
		},
		{
			"line1": "8 E. Boston St.",
			"city": "Chelmsford",
			"state": "MA",
			"zip": "01824"
		},
		{
			"line1": "44 King Court",
			"city": "Teaneck",
			"state": "NJ",
			"zip": "07666"
		},
		{
			"line1": "6 Fawn St.",
			"city": "Ottumwa",
			"state": "IA",
			"zip": "52501"
		},
		{
			"line1": "58 Strawberry Avenue",
			"city": "Fair Lawn",
			"state": "NJ",
			"zip": "07410"
		},
		{
			"line1": "1 Yukon St.",
			"city": "Kokomo",
			"state": "IN",
			"zip": "46901"
		},
		{
			"line1": "43 E. St Margarets Road",
			"city": "Hallandale",
			"state": "FL",
			"zip": "33009"
		},
		{
			"line1": "32 Bowman St.",
			"city": "Bergenfield",
			"state": "NJ",
			"zip": "07621"
		},
		{
			"line1": "657 Chestnut Street",
			"city": "Columbus",
			"state": "GA",
			"zip": "31904"
		},
		{
			"line1": "9640 Bald Hill Drive",
			"city": "Bettendorf",
			"state": "IA",
			"zip": "52722"
		},
		{
			"line1": "1 South Yukon St.",
			"city": "Culpeper",
			"state": "VA",
			"zip": "22701"
		},
		{
			"line1": "406 Washington Ave.",
			"city": "Fullerton",
			"state": "CA",
			"zip": "92831"
		},
		{
			"line1": "9056 Paris Hill Street",
			"city": "Grand Forks",
			"state": "ND",
			"zip": "58201"
		},
		{
			"line1": "105 Cemetery Drive",
			"city": "Portsmouth",
			"state": "VA",
			"zip": "23703"
		},
		{
			"line1": "177 Schoolhouse Road",
			"city": "West Hempstead",
			"state": "NY",
			"zip": "11552"
		},
		{
			"line1": "8311 Military Lane",
			"city": "Hobart",
			"state": "IN",
			"zip": "46342"
		},
		{
			"line1": "5 North Mammoth Dr.",
			"city": "Ooltewah",
			"state": "TN",
			"zip": "37363"
		},
		{
			"line1": "7080 Glen Eagles Lane",
			"city": "Champaign",
			"state": "IL",
			"zip": "61821"
		},
		{
			"line1": "9259 Cherry Hill Lane",
			"city": "Banning",
			"state": "CA",
			"zip": "92220"
		},
		{
			"line1": "9851 Somerset Court",
			"city": "Aberdeen",
			"state": "SD",
			"zip": "57401"
		},
		{
			"line1": "135 E. Court Street",
			"city": "Seymour",
			"state": "IN",
			"zip": "47274"
		},
		{
			"line1": "775 Glenwood St.",
			"city": "Kaukauna",
			"state": "WI",
			"zip": "54130"
		},
		{
			"line1": "579 Young Drive",
			"city": "Union City",
			"state": "NJ",
			"zip": "07087"
		},
		{
			"line1": "8411 West Bay Meadows Road",
			"city": "Oxnard",
			"state": "CA",
			"zip": "93035"
		},
		{
			"line1": "78 E. Plymouth Ave.",
			"city": "Ankeny",
			"state": "IA",
			"zip": "50023"
		},
		{
			"line1": "758 Swanson Avenue",
			"city": "Neptune",
			"state": "NJ",
			"zip": "07753"
		},
		{
			"line1": "8603 Victoria Ave.",
			"city": "Vernon Rockville",
			"state": "CT",
			"zip": "06066"
		},
		{
			"line1": "7274 W. Creekside Ave.",
			"city": "Sandusky",
			"state": "OH",
			"zip": "44870"
		},
		{
			"line1": "67 Santa Clara Road",
			"city": "Saint Augustine",
			"state": "FL",
			"zip": "32084"
		},
		{
			"line1": "8324 Sage Drive",
			"city": "Baltimore",
			"state": "MD",
			"zip": "21206"
		},
		{
			"line1": "208 Cemetery Street",
			"city": "Bradenton",
			"state": "FL",
			"zip": "34203"
		},
		{
			"line1": "15 Glen Eagles Ave.",
			"city": "Bridgewater",
			"state": "NJ",
			"zip": "08807"
		},
		{
			"line1": "168 South Brandywine St.",
			"city": "Branford",
			"state": "CT",
			"zip": "06405"
		},
		{
			"line1": "14 Jones Lane",
			"city": "Kings Mountain",
			"state": "NC",
			"zip": "28086"
		},
		{
			"line1": "9628 Livingston St.",
			"city": "Grovetown",
			"state": "GA",
			"zip": "30813"
		},
		{
			"line1": "988 Mechanic Street",
			"city": "Buckeye",
			"state": "AZ",
			"zip": "85326"
		},
		{
			"line1": "560 Prairie Street",
			"city": "Glen Allen",
			"state": "VA",
			"zip": "23059"
		},
		{
			"line1": "407 Hill Field Road",
			"city": "San Pablo",
			"state": "CA",
			"zip": "94806"
		},
		{
			"line1": "29 Princeton St.",
			"city": "Pomona",
			"state": "CA",
			"zip": "91768"
		},
		{
			"line1": "805 3rd Street",
			"city": "Rockledge",
			"state": "FL",
			"zip": "32955"
		},
		{
			"line1": "21 Bayport Lane",
			"city": "Brentwood",
			"state": "NY",
			"zip": "11717"
		},
		{
			"line1": "471 Brandywine Ave.",
			"city": "Vincentown",
			"state": "NJ",
			"zip": "08088"
		},
		{
			"line1": "771 West Littleton Dr.",
			"city": "Leland",
			"state": "NC",
			"zip": "28451"
		},
		{
			"line1": "710 Morris St.",
			"city": "Cartersville",
			"state": "GA",
			"zip": "30120"
		},
		{
			"line1": "304 Thomas Drive",
			"city": "Westminster",
			"state": "MD",
			"zip": "21157"
		},
		{
			"line1": "8854 Gregory Avenue",
			"city": "West Springfield",
			"state": "MA",
			"zip": "01089"
		},
		{
			"line1": "8291 Hilldale Road",
			"city": "Flint",
			"state": "MI",
			"zip": "48504"
		},
		{
			"line1": "8420 Campfire Street",
			"city": "Riverdale",
			"state": "GA",
			"zip": "30274"
		},
		{
			"line1": "38 Wrangler Rd.",
			"city": "Palm Coast",
			"state": "FL",
			"zip": "32137"
		},
		{
			"line1": "253 West Tallwood Ave.",
			"city": "Kent",
			"state": "OH",
			"zip": "44240"
		},
		{
			"line1": "63 Rockwell Rd.",
			"city": "Romulus",
			"state": "MI",
			"zip": "48174"
		},
		{
			"line1": "52 South St Margarets Street",
			"city": "Waukegan",
			"state": "IL",
			"zip": "60085"
		},
		{
			"line1": "190 Wagon Street",
			"city": "Dothan",
			"state": "AL",
			"zip": "36301"
		},
		{
			"line1": "640 S. Glen Eagles St.",
			"city": "Culpeper",
			"state": "VA",
			"zip": "22701"
		},
		{
			"line1": "637 Smoky Hollow Ave.",
			"city": "Feasterville Trevose",
			"state": "PA",
			"zip": "19053"
		},
		{
			"line1": "15 Green Lake Lane",
			"city": "Dover",
			"state": "NH",
			"zip": "03820"
		},
		{
			"line1": "408 Pendergast Ave.",
			"city": "Franklin",
			"state": "MA",
			"zip": "02038"
		},
		{
			"line1": "60 Halifax Lane",
			"city": "Trenton",
			"state": "NJ",
			"zip": "08610"
		},
		{
			"line1": "230 Carson St.",
			"city": "Midland",
			"state": "MI",
			"zip": "48640"
		},
		{
			"line1": "7647 Peg Shop Rd.",
			"city": "Lutherville Timonium",
			"state": "MD",
			"zip": "21093"
		},
		{
			"line1": "870 Linden Rd.",
			"city": "Westerville",
			"state": "OH",
			"zip": "43081"
		},
		{
			"line1": "17 Gulf Drive",
			"city": "Beverly",
			"state": "MA",
			"zip": "01915"
		},
		{
			"line1": "240 W. 53rd St.",
			"city": "San Diego",
			"state": "CA",
			"zip": "92111"
		},
		{
			"line1": "7094 Kingston Drive",
			"city": "Glenview",
			"state": "IL",
			"zip": "60025"
		},
		{
			"line1": "95 Smith Ave.",
			"city": "Emporia",
			"state": "KS",
			"zip": "66801"
		},
		{
			"line1": "647 Gulf Lane",
			"city": "Hudson",
			"state": "NH",
			"zip": "03051"
		},
		{
			"line1": "182 St Margarets Lane",
			"city": "Midlothian",
			"state": "VA",
			"zip": "23112"
		},
		{
			"line1": "9344 W. Pumpkin Hill Ave.",
			"city": "Long Beach",
			"state": "NY",
			"zip": "11561"
		},
		{
			"line1": "8290 Glen Eagles Drive",
			"city": "Gainesville",
			"state": "VA",
			"zip": "20155"
		},
		{
			"line1": "61 Sierra St.",
			"city": "Ambler",
			"state": "PA",
			"zip": "19002"
		},
		{
			"line1": "479 Theatre Street",
			"city": "Bellmore",
			"state": "NY",
			"zip": "11710"
		},
		{
			"line1": "769 Ann Street",
			"city": "Madison Heights",
			"state": "MI",
			"zip": "48071"
		},
		{
			"line1": "50 Fairway Ave.",
			"city": "Hanover Park",
			"state": "IL",
			"zip": "60133"
		},
		{
			"line1": "5 Bay Meadows St.",
			"city": "Painesville",
			"state": "OH",
			"zip": "44077"
		},
		{
			"line1": "6 Arlington Dr.",
			"city": "Durham",
			"state": "NC",
			"zip": "27703"
		},
		{
			"line1": "7835 Harrison Rd.",
			"city": "Pembroke Pines",
			"state": "FL",
			"zip": "33028"
		},
		{
			"line1": "848 Aspen Dr.",
			"city": "Elgin",
			"state": "IL",
			"zip": "60120"
		},
		{
			"line1": "7870 Rockledge St.",
			"city": "Hartford",
			"state": "CT",
			"zip": "06106"
		},
		{
			"line1": "7366 East St.",
			"city": "Kalispell",
			"state": "MT",
			"zip": "59901"
		},
		{
			"line1": "8342 Overlook Court",
			"city": "Snellville",
			"state": "GA",
			"zip": "30039"
		},
		{
			"line1": "51 Fairground Court",
			"city": "Clifton",
			"state": "NJ",
			"zip": "07011"
		},
		{
			"line1": "101 Sulphur Springs St.",
			"city": "Ladson",
			"state": "SC",
			"zip": "29456"
		},
		{
			"line1": "6 Old Plymouth St.",
			"city": "North Wales",
			"state": "PA",
			"zip": "19454"
		},
		{
			"line1": "249 Atlantic Lane",
			"city": "Palos Verdes Peninsula",
			"state": "CA",
			"zip": "90274"
		},
		{
			"line1": "30 Hillside Lane",
			"city": "Akron",
			"state": "OH",
			"zip": "44312"
		},
		{
			"line1": "146 Peachtree St.",
			"city": "Chelsea",
			"state": "MA",
			"zip": "02150"
		},
		{
			"line1": "126 Cedar Swamp Rd.",
			"city": "Malvern",
			"state": "PA",
			"zip": "19355"
		},
		{
			"line1": "55 W. Rock Maple St.",
			"city": "Nicholasville",
			"state": "KY",
			"zip": "40356"
		},
		{
			"line1": "85 Johnson Ave.",
			"city": "Harrisonburg",
			"state": "VA",
			"zip": "22801"
		},
		{
			"line1": "8302 N. Peachtree Ave.",
			"city": "Satellite Beach",
			"state": "FL",
			"zip": "32937"
		},
		{
			"line1": "8839 Beechwood Street",
			"city": "Huntsville",
			"state": "AL",
			"zip": "35803"
		},
		{
			"line1": "347 Bear Hill Ave.",
			"city": "Glen Ellyn",
			"state": "IL",
			"zip": "60137"
		},
		{
			"line1": "730 Mammoth St.",
			"city": "Hernando",
			"state": "MS",
			"zip": "38632"
		}
	]
}